{
  "type": "FeatureCollection",
  "features": [
    {
      "type": "Feature",
      "properties": {
        "norad_id": 30360,
        "name": "FENGYUN 1C DEB",
        "group": "fengyun-1c-debris",
        "lat": -43.71878215887393,
        "lon": -120.0822774255226,
        "alt_km": 817.7727705754751,
        "timestamp": "2025-12-24T18:55:56.344209+00:00",
        "meta_object_name": "FENGYUN 1C DEB",
        "meta_object_id": "1999-025ABX",
        "meta_epoch": "2025-12-24T04:42:18.256032",
        "meta_mean_motion": 14.26581947,
        "meta_eccentricity": 0.00308096,
        "meta_inclination": 98.7641,
        "meta_ra_of_asc_node": 67.8074,
        "meta_arg_of_pericenter": 114.706,
        "meta_mean_anomaly": 306.5133,
        "meta_ephemeris_type": 0,
        "meta_classification_type": "U",
        "meta_norad_cat_id": 30360,
        "meta_element_set_no": 999,
        "meta_rev_at_epoch": 97588,
        "meta_bstar": 0.0016040256,
        "meta_mean_motion_dot": 3.848e-05,
        "meta_mean_motion_ddot": 0,
        "tle_line1": "1 30360U 99025ABX 25358.19604463  .00003848  00000+0  16040-2 0  9998",
        "tle_line2": "2 30360  98.7641  67.8074 0030809 114.7060 306.5133 14.26581947975885"
      },
      "geometry": {
        "type": "Point",
        "coordinates": [
          -120.0822774255226,
          -43.71878215887393
        ]
      }
    },
    {
      "type": "Feature",
      "properties": {
        "norad_id": 30361,
        "name": "FENGYUN 1C DEB",
        "group": "fengyun-1c-debris",
        "lat": -80.8604027893411,
        "lon": 104.01862603867409,
        "alt_km": 807.7706648413432,
        "timestamp": "2025-12-24T18:55:56.344219+00:00",
        "meta_object_name": "FENGYUN 1C DEB",
        "meta_object_id": "1999-025ABY",
        "meta_epoch": "2025-12-24T02:29:18.837600",
        "meta_mean_motion": 14.25398076,
        "meta_eccentricity": 0.0064787,
        "meta_inclination": 98.5686,
        "meta_ra_of_asc_node": 33.7707,
        "meta_arg_of_pericenter": 357.2663,
        "meta_mean_anomaly": 2.8153,
        "meta_ephemeris_type": 0,
        "meta_classification_type": "U",
        "meta_norad_cat_id": 30361,
        "meta_element_set_no": 999,
        "meta_rev_at_epoch": 97778,
        "meta_bstar": 0.00080042554,
        "meta_mean_motion_dot": 1.887e-05,
        "meta_mean_motion_ddot": 0,
        "tle_line1": "1 30361U 99025ABY 25358.10369025  .00001887  00000+0  80043-3 0  9998",
        "tle_line2": "2 30361  98.5686  33.7707 0064787 357.2663   2.8153 14.25398076977780"
      },
      "geometry": {
        "type": "Point",
        "coordinates": [
          104.01862603867409,
          -80.8604027893411
        ]
      }
    },
    {
      "type": "Feature",
      "properties": {
        "norad_id": 30362,
        "name": "FENGYUN 1C DEB",
        "group": "fengyun-1c-debris",
        "lat": 54.89557928798284,
        "lon": -91.40422490947144,
        "alt_km": 865.4114590704748,
        "timestamp": "2025-12-24T18:55:56.344229+00:00",
        "meta_object_name": "FENGYUN 1C DEB",
        "meta_object_id": "1999-025ABZ",
        "meta_epoch": "2025-12-23T05:15:11.326176",
        "meta_mean_motion": 14.11916121,
        "meta_eccentricity": 0.00950352,
        "meta_inclination": 99.0504,
        "meta_ra_of_asc_node": 280.1175,
        "meta_arg_of_pericenter": 314.7871,
        "meta_mean_anomaly": 44.5598,
        "meta_ephemeris_type": 0,
        "meta_classification_type": "U",
        "meta_norad_cat_id": 30362,
        "meta_element_set_no": 999,
        "meta_rev_at_epoch": 96316,
        "meta_bstar": 0.0025793491,
        "meta_mean_motion_dot": 4.875e-05,
        "meta_mean_motion_ddot": 0,
        "tle_line1": "1 30362U 99025ABZ 25357.21888109  .00004875  00000+0  25793-2 0  9999",
        "tle_line2": "2 30362  99.0504 280.1175 0095035 314.7871  44.5598 14.11916121963167"
      },
      "geometry": {
        "type": "Point",
        "coordinates": [
          -91.40422490947144,
          54.89557928798284
        ]
      }
    },
    {
      "type": "Feature",
      "properties": {
        "norad_id": 30363,
        "name": "FENGYUN 1C DEB",
        "group": "fengyun-1c-debris",
        "lat": 13.08110860537983,
        "lon": -107.77363865937312,
        "alt_km": 890.7841184821427,
        "timestamp": "2025-12-24T18:55:56.344239+00:00",
        "meta_object_name": "FENGYUN 1C DEB",
        "meta_object_id": "1999-025ACA",
        "meta_epoch": "2025-12-21T15:34:54.738624",
        "meta_mean_motion": 14.1692227,
        "meta_eccentricity": 0.00786947,
        "meta_inclination": 99.0307,
        "meta_ra_of_asc_node": 66.9219,
        "meta_arg_of_pericenter": 13.3603,
        "meta_mean_anomaly": 346.963,
        "meta_ephemeris_type": 0,
        "meta_classification_type": "U",
        "meta_norad_cat_id": 30363,
        "meta_element_set_no": 999,
        "meta_rev_at_epoch": 96950,
        "meta_bstar": 0.0012736577,
        "meta_mean_motion_dot": 2.589e-05,
        "meta_mean_motion_ddot": 0,
        "tle_line1": "1 30363U 99025ACA 25355.64924466  .00002589  00000+0  12737-2 0  9996",
        "tle_line2": "2 30363  99.0307  66.9219 0078694  13.3603 346.9630 14.16922270969502"
      },
      "geometry": {
        "type": "Point",
        "coordinates": [
          -107.77363865937312,
          13.08110860537983
        ]
      }
    },
    {
      "type": "Feature",
      "properties": {
        "norad_id": 30364,
        "name": "FENGYUN 1C DEB",
        "group": "fengyun-1c-debris",
        "lat": -57.09565805059522,
        "lon": -73.08549157749913,
        "alt_km": 612.3938892117376,
        "timestamp": "2025-12-24T18:55:56.344250+00:00",
        "meta_object_name": "FENGYUN 1C DEB",
        "meta_object_id": "1999-025ACB",
        "meta_epoch": "2025-12-24T06:23:36.051072",
        "meta_mean_motion": 14.17338859,
        "meta_eccentricity": 0.03308548,
        "meta_inclination": 98.1347,
        "meta_ra_of_asc_node": 273.6642,
        "meta_arg_of_pericenter": 286.698,
        "meta_mean_anomaly": 230.0072,
        "meta_ephemeris_type": 0,
        "meta_classification_type": "U",
        "meta_norad_cat_id": 30364,
        "meta_element_set_no": 999,
        "meta_rev_at_epoch": 95804,
        "meta_bstar": 0.0031319069,
        "meta_mean_motion_dot": 0.00010842,
        "meta_mean_motion_ddot": 0,
        "tle_line1": "1 30364U 99025ACB 25358.26638948  .00010842  00000+0  31319-2 0  9993",
        "tle_line2": "2 30364  98.1347 273.6642 0330854 286.6980 230.0072 14.17338859958041"
      },
      "geometry": {
        "type": "Point",
        "coordinates": [
          -73.08549157749913,
          -57.09565805059522
        ]
      }
    },
    {
      "type": "Feature",
      "properties": {
        "norad_id": 30365,
        "name": "FENGYUN 1C DEB",
        "group": "fengyun-1c-debris",
        "lat": -42.07646334499497,
        "lon": 164.97557661887367,
        "alt_km": 933.9656045404727,
        "timestamp": "2025-12-24T18:55:56.344260+00:00",
        "meta_object_name": "FENGYUN 1C DEB",
        "meta_object_id": "1999-025ACC",
        "meta_epoch": "2025-12-23T12:01:43.255776",
        "meta_mean_motion": 14.19240442,
        "meta_eccentricity": 0.01680603,
        "meta_inclination": 98.6196,
        "meta_ra_of_asc_node": 351.5933,
        "meta_arg_of_pericenter": 80.5316,
        "meta_mean_anomaly": 45.7125,
        "meta_ephemeris_type": 0,
        "meta_classification_type": "U",
        "meta_norad_cat_id": 30365,
        "meta_element_set_no": 999,
        "meta_rev_at_epoch": 97765,
        "meta_bstar": 0.00019938068,
        "meta_mean_motion_dot": 4.39e-06,
        "meta_mean_motion_ddot": 0,
        "tle_line1": "1 30365U 99025ACC 25357.50119509  .00000439  00000+0  19938-3 0  9992",
        "tle_line2": "2 30365  98.6196 351.5933 0168060  80.5316  45.7125 14.19240442977650"
      },
      "geometry": {
        "type": "Point",
        "coordinates": [
          164.97557661887367,
          -42.07646334499497
        ]
      }
    },
    {
      "type": "Feature",
      "properties": {
        "norad_id": 30366,
        "name": "FENGYUN 1C DEB",
        "group": "fengyun-1c-debris",
        "lat": -27.71941388018703,
        "lon": 91.91264044351158,
        "alt_km": 745.0327286992988,
        "timestamp": "2025-12-24T18:55:56.344270+00:00",
        "meta_object_name": "FENGYUN 1C DEB",
        "meta_object_id": "1999-025ACD",
        "meta_epoch": "2025-12-23T07:22:23.113344",
        "meta_mean_motion": 14.33514449,
        "meta_eccentricity": 0.00623419,
        "meta_inclination": 98.9243,
        "meta_ra_of_asc_node": 275.1215,
        "meta_arg_of_pericenter": 187.9521,
        "meta_mean_anomaly": 297.8599,
        "meta_ephemeris_type": 0,
        "meta_classification_type": "U",
        "meta_norad_cat_id": 30366,
        "meta_element_set_no": 999,
        "meta_rev_at_epoch": 98474,
        "meta_bstar": 0.00041079096,
        "meta_mean_motion_dot": 1.114e-05,
        "meta_mean_motion_ddot": 0,
        "tle_line1": "1 30366U 99025ACD 25357.30721196  .00001114  00000+0  41079-3 0  9994",
        "tle_line2": "2 30366  98.9243 275.1215 0062341 187.9521 297.8599 14.33514449984746"
      },
      "geometry": {
        "type": "Point",
        "coordinates": [
          91.91264044351158,
          -27.71941388018703
        ]
      }
    }
  ]
}